[{"OBJECT_NAME":"STARLINK-5820","OBJECT_ID":"2023-028AS","EPOCH":"2026-03-09T19:28:07.575456","MEAN_MOTION":14.9832895,"ECCENTRICITY":0.0003108,"INCLINATION":70,"RA_OF_ASC_NODE":224.0872,"ARG_OF_PERICENTER":269.6171,"MEAN_ANOMALY":90.4631,"EPHEMERIS_TYPE":0,"CLASSIFICATION_TYPE":"U","NORAD_CAT_ID":55781,"ELEMENT_SET_NO":999,"REV_AT_EPOCH":16655,"BSTAR":-4.7828208e-5,"MEAN_MOTION_DOT":-6.64e-6,"MEAN_MOTION_DDOT":0},{"OBJECT_NAME":"ARIANE 5 DEB [SYLDA]","OBJECT_ID":"2015-034D","EPOCH":"2026-03-09T23:18:48.958272","MEAN_MOTION":13.47402299,"ECCENTRICITY":0.12499591,"INCLINATION":3.8791,"RA_OF_ASC_NODE":64.6612,"ARG_OF_PERICENTER":201.0255,"MEAN_ANOMALY":153.3584,"EPHEMERIS_TYPE":0,"CLASSIFICATION_TYPE":"U","NORAD_CAT_ID":40735,"ELEMENT_SET_NO":999,"REV_AT_EPOCH":12318,"BSTAR":0.0051736353,"MEAN_MOTION_DOT":0.10375032,"MEAN_MOTION_DDOT":-2.0134112e-5}]
